<?xml version="1.0" encoding="UTF-8"?>
<ndm xmlns:xsi="http://www.w3.org/2001/XMLSchema-instance" xsi:noNamespaceSchemaLocation="https://sanaregistry.org/r/ndmxml_unqualified/ndmxml-2.0.0-master-2.0.xsd">
<omm id="CCSDS_OMM_VERS" version="2.0">
<header><CREATION_DATE/><ORIGINATOR/></header><body><segment><metadata><OBJECT_NAME>KUIPER-00027</OBJECT_NAME><OBJECT_ID>2025-088S</OBJECT_ID><CENTER_NAME>EARTH</CENTER_NAME><REF_FRAME>TEME</REF_FRAME><TIME_SYSTEM>UTC</TIME_SYSTEM><MEAN_ELEMENT_THEORY>SGP4</MEAN_ELEMENT_THEORY></metadata><data><meanElements><EPOCH>2025-07-31T17:01:34.046112</EPOCH><MEAN_MOTION>15.38337694</MEAN_MOTION><ECCENTRICITY>.0001544</ECCENTRICITY><INCLINATION>51.8726</INCLINATION><RA_OF_ASC_NODE>4.7102</RA_OF_ASC_NODE><ARG_OF_PERICENTER>84.2887</ARG_OF_PERICENTER><MEAN_ANOMALY>275.8276</MEAN_ANOMALY></meanElements><tleParameters><EPHEMERIS_TYPE>0</EPHEMERIS_TYPE><CLASSIFICATION_TYPE>U</CLASSIFICATION_TYPE><NORAD_CAT_ID>63740</NORAD_CAT_ID><ELEMENT_SET_NO>999</ELEMENT_SET_NO><REV_AT_EPOCH>1472</REV_AT_EPOCH><BSTAR>.56544E-3</BSTAR><MEAN_MOTION_DOT>.21374E-3</MEAN_MOTION_DOT><MEAN_MOTION_DDOT>0</MEAN_MOTION_DDOT></tleParameters></data></segment></body></omm>
<omm id="CCSDS_OMM_VERS" version="2.0">
<header><CREATION_DATE/><ORIGINATOR/></header><body><segment><metadata><OBJECT_NAME>KUIPER-00028</OBJECT_NAME><OBJECT_ID>2025-088T</OBJECT_ID><CENTER_NAME>EARTH</CENTER_NAME><REF_FRAME>TEME</REF_FRAME><TIME_SYSTEM>UTC</TIME_SYSTEM><MEAN_ELEMENT_THEORY>SGP4</MEAN_ELEMENT_THEORY></metadata><data><meanElements><EPOCH>2025-07-31T16:48:30.354912</EPOCH><MEAN_MOTION>15.38419610</MEAN_MOTION><ECCENTRICITY>.0001564</ECCENTRICITY><INCLINATION>51.8721</INCLINATION><RA_OF_ASC_NODE>4.6450</RA_OF_ASC_NODE><ARG_OF_PERICENTER>62.8119</ARG_OF_PERICENTER><MEAN_ANOMALY>297.3028</MEAN_ANOMALY></meanElements><tleParameters><EPHEMERIS_TYPE>0</EPHEMERIS_TYPE><CLASSIFICATION_TYPE>U</CLASSIFICATION_TYPE><NORAD_CAT_ID>63741</NORAD_CAT_ID><ELEMENT_SET_NO>999</ELEMENT_SET_NO><REV_AT_EPOCH>1513</REV_AT_EPOCH><BSTAR>.55787E-3</BSTAR><MEAN_MOTION_DOT>.21139E-3</MEAN_MOTION_DOT><MEAN_MOTION_DDOT>0</MEAN_MOTION_DDOT></tleParameters></data></segment></body></omm>
<omm id="CCSDS_OMM_VERS" version="2.0">
<header><CREATION_DATE/><ORIGINATOR/></header><body><segment><metadata><OBJECT_NAME>KUIPER-00029</OBJECT_NAME><OBJECT_ID>2025-088U</OBJECT_ID><CENTER_NAME>EARTH</CENTER_NAME><REF_FRAME>TEME</REF_FRAME><TIME_SYSTEM>UTC</TIME_SYSTEM><MEAN_ELEMENT_THEORY>SGP4</MEAN_ELEMENT_THEORY></metadata><data><meanElements><EPOCH>2025-07-31T16:38:59.193024</EPOCH><MEAN_MOTION>15.37224066</MEAN_MOTION><ECCENTRICITY>.0004838</ECCENTRICITY><INCLINATION>51.8706</INCLINATION><RA_OF_ASC_NODE>5.3277</RA_OF_ASC_NODE><ARG_OF_PERICENTER>90.5337</ARG_OF_PERICENTER><MEAN_ANOMALY>269.6204</MEAN_ANOMALY></meanElements><tleParameters><EPHEMERIS_TYPE>0</EPHEMERIS_TYPE><CLASSIFICATION_TYPE>U</CLASSIFICATION_TYPE><NORAD_CAT_ID>63742</NORAD_CAT_ID><ELEMENT_SET_NO>999</ELEMENT_SET_NO><REV_AT_EPOCH>1465</REV_AT_EPOCH><BSTAR>.52675E-3</BSTAR><MEAN_MOTION_DOT>.19167E-3</MEAN_MOTION_DOT><MEAN_MOTION_DDOT>0</MEAN_MOTION_DDOT></tleParameters></data></segment></body></omm>
<omm id="CCSDS_OMM_VERS" version="2.0">
<header><CREATION_DATE/><ORIGINATOR/></header><body><segment><metadata><OBJECT_NAME>KUIPER-00030</OBJECT_NAME><OBJECT_ID>2025-088V</OBJECT_ID><CENTER_NAME>EARTH</CENTER_NAME><REF_FRAME>TEME</REF_FRAME><TIME_SYSTEM>UTC</TIME_SYSTEM><MEAN_ELEMENT_THEORY>SGP4</MEAN_ELEMENT_THEORY></metadata><data><meanElements><EPOCH>2025-07-31T10:50:16.647648</EPOCH><MEAN_MOTION>15.12128718</MEAN_MOTION><ECCENTRICITY>.0011288</ECCENTRICITY><INCLINATION>51.8873</INCLINATION><RA_OF_ASC_NODE>11.1851</RA_OF_ASC_NODE><ARG_OF_PERICENTER>76.6320</ARG_OF_PERICENTER><MEAN_ANOMALY>283.5914</MEAN_ANOMALY></meanElements><tleParameters><EPHEMERIS_TYPE>0</EPHEMERIS_TYPE><CLASSIFICATION_TYPE>U</CLASSIFICATION_TYPE><NORAD_CAT_ID>63743</NORAD_CAT_ID><ELEMENT_SET_NO>999</ELEMENT_SET_NO><REV_AT_EPOCH>1483</REV_AT_EPOCH><BSTAR>-.22816E-3</BSTAR><MEAN_MOTION_DOT>-.4287E-4</MEAN_MOTION_DOT><MEAN_MOTION_DDOT>0</MEAN_MOTION_DDOT></tleParameters></data></segment></body></omm>
<omm id="CCSDS_OMM_VERS" version="2.0">
<header><CREATION_DATE/><ORIGINATOR/></header><body><segment><metadata><OBJECT_NAME>KUIPER-00031</OBJECT_NAME><OBJECT_ID>2025-088W</OBJECT_ID><CENTER_NAME>EARTH</CENTER_NAME><REF_FRAME>TEME</REF_FRAME><TIME_SYSTEM>UTC</TIME_SYSTEM><MEAN_ELEMENT_THEORY>SGP4</MEAN_ELEMENT_THEORY></metadata><data><meanElements><EPOCH>2025-07-31T20:31:29.127072</EPOCH><MEAN_MOTION>15.37921375</MEAN_MOTION><ECCENTRICITY>.0003964</ECCENTRICITY><INCLINATION>51.8700</INCLINATION><RA_OF_ASC_NODE>4.1721</RA_OF_ASC_NODE><ARG_OF_PERICENTER>86.1176</ARG_OF_PERICENTER><MEAN_ANOMALY>274.0264</MEAN_ANOMALY></meanElements><tleParameters><EPHEMERIS_TYPE>0</EPHEMERIS_TYPE><CLASSIFICATION_TYPE>U</CLASSIFICATION_TYPE><NORAD_CAT_ID>63744</NORAD_CAT_ID><ELEMENT_SET_NO>999</ELEMENT_SET_NO><REV_AT_EPOCH>1468</REV_AT_EPOCH><BSTAR>.46087E-3</BSTAR><MEAN_MOTION_DOT>.17103E-3</MEAN_MOTION_DOT><MEAN_MOTION_DDOT>0</MEAN_MOTION_DDOT></tleParameters></data></segment></body></omm>
<omm id="CCSDS_OMM_VERS" version="2.0">
<header><CREATION_DATE/><ORIGINATOR/></header><body><segment><metadata><OBJECT_NAME>KUIPER-00032</OBJECT_NAME><OBJECT_ID>2025-088X</OBJECT_ID><CENTER_NAME>EARTH</CENTER_NAME><REF_FRAME>TEME</REF_FRAME><TIME_SYSTEM>UTC</TIME_SYSTEM><MEAN_ELEMENT_THEORY>SGP4</MEAN_ELEMENT_THEORY></metadata><data><meanElements><EPOCH>2025-07-31T22:00:01.999584</EPOCH><MEAN_MOTION>15.30998065</MEAN_MOTION><ECCENTRICITY>.0003882</ECCENTRICITY><INCLINATION>51.8740</INCLINATION><RA_OF_ASC_NODE>4.2418</RA_OF_ASC_NODE><ARG_OF_PERICENTER>58.0280</ARG_OF_PERICENTER><MEAN_ANOMALY>93.7736</MEAN_ANOMALY></meanElements><tleParameters><EPHEMERIS_TYPE>0</EPHEMERIS_TYPE><CLASSIFICATION_TYPE>U</CLASSIFICATION_TYPE><NORAD_CAT_ID>63745</NORAD_CAT_ID><ELEMENT_SET_NO>999</ELEMENT_SET_NO><REV_AT_EPOCH>1568</REV_AT_EPOCH><BSTAR>.18661E-2</BSTAR><MEAN_MOTION_DOT>.56784E-3</MEAN_MOTION_DOT><MEAN_MOTION_DDOT>0</MEAN_MOTION_DDOT></tleParameters></data></segment></body></omm>
<omm id="CCSDS_OMM_VERS" version="2.0">
<header><CREATION_DATE/><ORIGINATOR/></header><body><segment><metadata><OBJECT_NAME>KUIPER-00033</OBJECT_NAME><OBJECT_ID>2025-088Y</OBJECT_ID><CENTER_NAME>EARTH</CENTER_NAME><REF_FRAME>TEME</REF_FRAME><TIME_SYSTEM>UTC</TIME_SYSTEM><MEAN_ELEMENT_THEORY>SGP4</MEAN_ELEMENT_THEORY></metadata><data><meanElements><EPOCH>2025-07-31T20:56:51.131328</EPOCH><MEAN_MOTION>14.79826327</MEAN_MOTION><ECCENTRICITY>.0003207</ECCENTRICITY><INCLINATION>51.9018</INCLINATION><RA_OF_ASC_NODE>23.0549</RA_OF_ASC_NODE><ARG_OF_PERICENTER>152.3956</ARG_OF_PERICENTER><MEAN_ANOMALY>207.7177</MEAN_ANOMALY></meanElements><tleParameters><EPHEMERIS_TYPE>0</EPHEMERIS_TYPE><CLASSIFICATION_TYPE>U</CLASSIFICATION_TYPE><NORAD_CAT_ID>63746</NORAD_CAT_ID><ELEMENT_SET_NO>999</ELEMENT_SET_NO><REV_AT_EPOCH>1490</REV_AT_EPOCH><BSTAR>.34228E-3</BSTAR><MEAN_MOTION_DOT>.2382E-4</MEAN_MOTION_DOT><MEAN_MOTION_DDOT>0</MEAN_MOTION_DDOT></tleParameters></data></segment></body></omm>
<omm id="CCSDS_OMM_VERS" version="2.0">
<header><CREATION_DATE/><ORIGINATOR/></header><body><segment><metadata><OBJECT_NAME>KUIPER-00034</OBJECT_NAME><OBJECT_ID>2025-088Z</OBJECT_ID><CENTER_NAME>EARTH</CENTER_NAME><REF_FRAME>TEME</REF_FRAME><TIME_SYSTEM>UTC</TIME_SYSTEM><MEAN_ELEMENT_THEORY>SGP4</MEAN_ELEMENT_THEORY></metadata><data><meanElements><EPOCH>2025-07-31T16:56:52.729440</EPOCH><MEAN_MOTION>15.37984665</MEAN_MOTION><ECCENTRICITY>.0001596</ECCENTRICITY><INCLINATION>51.8718</INCLINATION><RA_OF_ASC_NODE>4.6863</RA_OF_ASC_NODE><ARG_OF_PERICENTER>99.7199</ARG_OF_PERICENTER><MEAN_ANOMALY>260.3968</MEAN_ANOMALY></meanElements><tleParameters><EPHEMERIS_TYPE>0</EPHEMERIS_TYPE><CLASSIFICATION_TYPE>U</CLASSIFICATION_TYPE><NORAD_CAT_ID>63747</NORAD_CAT_ID><ELEMENT_SET_NO>999</ELEMENT_SET_NO><REV_AT_EPOCH>1482</REV_AT_EPOCH><BSTAR>.52981E-3</BSTAR><MEAN_MOTION_DOT>.19767E-3</MEAN_MOTION_DOT><MEAN_MOTION_DDOT>0</MEAN_MOTION_DDOT></tleParameters></data></segment></body></omm>

</ndm>
